{"type": "FeatureCollection", "features": [ {"type": "Feature", "properties": {"norad_id": 32464, "name": "FENGYUN 1C DEB", "group": "fengyun-1c-debris", "lat": -10.65881715358216, "lon": -176.68769933856598, "alt_km": 565.1629588475598, "timestamp": "2025-12-05T22:40:48.837025+00:00", "meta": {"OBJECT_NAME": "FENGYUN 1C DEB", "OBJECT_ID": "1999-025DCC", "EPOCH": "2025-12-01T19:39:49.615200", "MEAN_MOTION": 14.92402784, "ECCENTRICITY": 0.01131409, "INCLINATION": 97.3575, "RA_OF_ASC_NODE": 0.8492, "ARG_OF_PERICENTER": 273.2898, "MEAN_ANOMALY": 85.5384, "EPHEMERIS_TYPE": 0, "CLASSIFICATION_TYPE": "U", "NORAD_CAT_ID": 32464, "ELEMENT_SET_NO": 999, "REV_AT_EPOCH": 60629, "BSTAR": 0.001374684, "MEAN_MOTION_DOT": 0.00015906, "MEAN_MOTION_DDOT": 0}, "tle": {"line1": "1 32464U 99025DCC 25335.81932425  .00015906  00000+0  13747-2 0  9990", "line2": "2 32464  97.3575   0.8492 0113140 273.2898  85.5384 14.92402784606296"}}, "geometry": {"type": "Point", "coordinates": [-176.68769933856598, -10.65881715358216]}}, {"type": "Feature", "properties": {"norad_id": 33502, "name": "FENGYUN 1C DEB", "group": "fengyun-1c-debris", "lat": 0.28612427898305093, "lon": -77.49901548018444, "alt_km": 878.4736065273464, "timestamp": "2025-12-05T22:40:48.837036+00:00", "meta": {"OBJECT_NAME": "FENGYUN 1C DEB", "OBJECT_ID": "1999-025DCF", "EPOCH": "2025-12-04T19:57:15.920064", "MEAN_MOTION": 14.2173873, "ECCENTRICITY": 0.00788125, "INCLINATION": 99.025, "RA_OF_ASC_NODE": 281.4079, "ARG_OF_PERICENTER": 175.9833, "MEAN_ANOMALY": 248.1087, "EPHEMERIS_TYPE": 0, "CLASSIFICATION_TYPE": "U", "NORAD_CAT_ID": 33502, "ELEMENT_SET_NO": 999, "REV_AT_EPOCH": 86843, "BSTAR": 0.0053189097, "MEAN_MOTION_DOT": 0.00012042, "MEAN_MOTION_DDOT": 0}, "tle": {"line1": "1 33502U 99025DCF 25338.83143426  .00012042  00000+0  53189-2 0  9996", "line2": "2 33502  99.0250 281.4079 0078812 175.9833 248.1087 14.21738730868438"}}, "geometry": {"type": "Point", "coordinates": [-77.49901548018444, 0.28612427898305093]}}, {"type": "Feature", "properties": {"norad_id": 33599, "name": "FENGYUN 1C DEB", "group": "fengyun-1c-debris", "lat": 8.180889089202177, "lon": -130.45469889592212, "alt_km": 602.1676685639022, "timestamp": "2025-12-05T22:40:48.837046+00:00", "meta": {"OBJECT_NAME": "FENGYUN 1C DEB", "OBJECT_ID": "1999-025DCG", "EPOCH": "2025-11-20T10:50:20.760288", "MEAN_MOTION": 15.13875085, "ECCENTRICITY": 0.01305425, "INCLINATION": 96.6164, "RA_OF_ASC_NODE": 35.1071, "ARG_OF_PERICENTER": 19.0845, "MEAN_ANOMALY": 341.5213, "EPHEMERIS_TYPE": 0, "CLASSIFICATION_TYPE": "U", "NORAD_CAT_ID": 33599, "ELEMENT_SET_NO": 999, "REV_AT_EPOCH": 65666, "BSTAR": 0.0014461331, "MEAN_MOTION_DOT": 0.00032405, "MEAN_MOTION_DDOT": 0}, "tle": {"line1": "1 33599U 99025DCG 25324.45162917  .00032405  00000+0  14461-2 0  9996", "line2": "2 33599  96.6164  35.1071 0130542  19.0845 341.5213 15.13875085656663"}}, "geometry": {"type": "Point", "coordinates": [-130.45469889592212, 8.180889089202177]}}, {"type": "Feature", "properties": {"norad_id": 33601, "name": "FENGYUN 1C DEB", "group": "fengyun-1c-debris", "lat": 16.322179600829937, "lon": 134.20921266932208, "alt_km": 961.0881516946692, "timestamp": "2025-12-05T22:40:48.837056+00:00", "meta": {"OBJECT_NAME": "FENGYUN 1C DEB", "OBJECT_ID": "1999-025DCJ", "EPOCH": "2025-11-28T21:43:48.473760", "MEAN_MOTION": 14.07801571, "ECCENTRICITY": 0.01586414, "INCLINATION": 98.3138, "RA_OF_ASC_NODE": 130.1771, "ARG_OF_PERICENTER": 181.8859, "MEAN_ANOMALY": 178.1734, "EPHEMERIS_TYPE": 0, "CLASSIFICATION_TYPE": "U", "NORAD_CAT_ID": 33601, "ELEMENT_SET_NO": 999, "REV_AT_EPOCH": 90485, "BSTAR": 0.0013995386, "MEAN_MOTION_DOT": 2.622e-05, "MEAN_MOTION_DDOT": 0}, "tle": {"line1": "1 33601U 99025DCJ 25332.90542215  .00002622  00000+0  13995-2 0  9991", "line2": "2 33601  98.3138 130.1771 0158641 181.8859 178.1734 14.07801571904853"}}, "geometry": {"type": "Point", "coordinates": [134.20921266932208, 16.322179600829937]}}, {"type": "Feature", "properties": {"norad_id": 33603, "name": "FENGYUN 1C DEB", "group": "fengyun-1c-debris", "lat": 81.11921698717971, "lon": 177.66879735362934, "alt_km": 467.716965120605, "timestamp": "2025-12-05T22:40:48.837066+00:00", "meta": {"OBJECT_NAME": "FENGYUN 1C DEB", "OBJECT_ID": "1999-025DCL", "EPOCH": "2025-12-05T01:11:07.399680", "MEAN_MOTION": 14.79868588, "ECCENTRICITY": 0.0220742, "INCLINATION": 98.8039, "RA_OF_ASC_NODE": 273.997, "ARG_OF_PERICENTER": 96.7761, "MEAN_ANOMALY": 265.8619, "EPHEMERIS_TYPE": 0, "CLASSIFICATION_TYPE": "U", "NORAD_CAT_ID": 33603, "ELEMENT_SET_NO": 999, "REV_AT_EPOCH": 98746, "BSTAR": 0.00035268434, "MEAN_MOTION_DOT": 3.96e-05, "MEAN_MOTION_DDOT": 0}, "tle": {"line1": "1 33603U 99025DCL 25339.04939120  .00003960  00000+0  35268-3 0  9994", "line2": "2 33603  98.8039 273.9970 0220742  96.7761 265.8619 14.79868588987469"}}, "geometry": {"type": "Point", "coordinates": [177.66879735362934, 81.11921698717971]}}, {"type": "Feature", "properties": {"norad_id": 33605, "name": "FENGYUN 1C DEB", "group": "fengyun-1c-debris", "lat": -44.18462681622568, "lon": -12.226023074659633, "alt_km": 904.663588923404, "timestamp": "2025-12-05T22:40:48.837075+00:00", "meta": {"OBJECT_NAME": "FENGYUN 1C DEB", "OBJECT_ID": "1999-025DCN", "EPOCH": "2025-11-29T06:37:27.772032", "MEAN_MOTION": 14.07732345, "ECCENTRICITY": 0.00571999, "INCLINATION": 98.6988, "RA_OF_ASC_NODE": 332.793, "ARG_OF_PERICENTER": 112.5488, "MEAN_ANOMALY": 264.4464, "EPHEMERIS_TYPE": 0, "CLASSIFICATION_TYPE": "U", "NORAD_CAT_ID": 33605, "ELEMENT_SET_NO": 999, "REV_AT_EPOCH": 59629, "BSTAR": 0.00056176503, "MEAN_MOTION_DOT": 9.23e-06, "MEAN_MOTION_DDOT": 0}, "tle": {"line1": "1 33605U 99025DCN 25333.27601588  .00000923  00000+0  56177-3 0  9997", "line2": "2 33605  98.6988 332.7930 0057199 112.5488 264.4464 14.07732345596291"}}, "geometry": {"type": "Point", "coordinates": [-12.226023074659633, -44.18462681622568]}}, {"type": "Feature", "properties": {"norad_id": 33612, "name": "FENGYUN 1C DEB", "group": "fengyun-1c-debris", "lat": 9.094625889956609, "lon": -51.86508326592271, "alt_km": 919.0074858878525, "timestamp": "2025-12-05T22:40:48.837085+00:00", "meta": {"OBJECT_NAME": "FENGYUN 1C DEB", "OBJECT_ID": "1999-025DCV", "EPOCH": "2025-12-02T09:07:04.428768", "MEAN_MOTION": 14.03995627, "ECCENTRICITY": 0.0111082, "INCLINATION": 98.599, "RA_OF_ASC_NODE": 306.1484, "ARG_OF_PERICENTER": 137.5735, "MEAN_ANOMALY": 223.4087, "EPHEMERIS_TYPE": 0, "CLASSIFICATION_TYPE": "U", "NORAD_CAT_ID": 33612, "ELEMENT_SET_NO": 999, "REV_AT_EPOCH": 56528, "BSTAR": 0.0015686766, "MEAN_MOTION_DOT": 2.58e-05, "MEAN_MOTION_DDOT": 0}, "tle": {"line1": "1 33612U 99025DCV 25336.37991237  .00002580  00000+0  15687-2 0  9993", "line2": "2 33612  98.5990 306.1484 0111082 137.5735 223.4087 14.03995627565285"}}, "geometry": {"type": "Point", "coordinates": [-51.86508326592271, 9.094625889956609]}}, {"type": "Feature", "properties": {"norad_id": 33613, "name": "FENGYUN 1C DEB", "group": "fengyun-1c-debris", "lat": 16.510160242212933, "lon": -125.77268853670337, "alt_km": 769.4128577346592, "timestamp": "2025-12-05T22:40:48.837095+00:00", "meta": {"OBJECT_NAME": "FENGYUN 1C DEB", "OBJECT_ID": "1999-025DCW", "EPOCH": "2025-11-24T11:05:45.286080", "MEAN_MOTION": 14.32910608, "ECCENTRICITY": 0.0031489, "INCLINATION": 98.6979, "RA_OF_ASC_NODE": 40.1002, "ARG_OF_PERICENTER": 140.9568, "MEAN_ANOMALY": 219.3897, "EPHEMERIS_TYPE": 0, "CLASSIFICATION_TYPE": "U", "NORAD_CAT_ID": 33613, "ELEMENT_SET_NO": 999, "REV_AT_EPOCH": 64248, "BSTAR": 0.0024346, "MEAN_MOTION_DOT": 6.649e-05, "MEAN_MOTION_DDOT": 0}, "tle": {"line1": "1 33613U 99025DCW 25328.46232970  .00006649  00000+0  24346-2 0  9999", "line2": "2 33613  98.6979  40.1002 0031489 140.9568 219.3897 14.32910608642488"}}, "geometry": {"type": "Point", "coordinates": [-125.77268853670337, 16.510160242212933]}}, {"type": "Feature", "properties": {"norad_id": 33618, "name": "FENGYUN 1C DEB", "group": "fengyun-1c-debris", "lat": 60.995893125292, "lon": 51.35027572239789, "alt_km": 697.4774921157214, "timestamp": "2025-12-05T22:40:48.837105+00:00", "meta": {"OBJECT_NAME": "FENGYUN 1C DEB", "OBJECT_ID": "1999-025DDB", "EPOCH": "2025-12-05T01:02:15.005472", "MEAN_MOTION": 14.61987777, "ECCENTRICITY": 0.01652471, "INCLINATION": 98.5317, "RA_OF_ASC_NODE": 66.1294, "ARG_OF_PERICENTER": 164.1995, "MEAN_ANOMALY": 196.445, "EPHEMERIS_TYPE": 0, "CLASSIFICATION_TYPE": "U", "NORAD_CAT_ID": 33618, "ELEMENT_SET_NO": 999, "REV_AT_EPOCH": 96671, "BSTAR": 0.0022146531, "MEAN_MOTION_DOT": 0.00013465, "MEAN_MOTION_DDOT": 0}, "tle": {"line1": "1 33618U 99025DDB 25339.04322923  .00013465  00000+0  22147-2 0  9999", "line2": "2 33618  98.5317  66.1294 0165247 164.1995 196.4450 14.61987777966719"}}, "geometry": {"type": "Point", "coordinates": [51.35027572239789, 60.995893125292]}}, {"type": "Feature", "properties": {"norad_id": 33619, "name": "FENGYUN 1C DEB", "group": "fengyun-1c-debris", "lat": -48.64958337300721, "lon": 59.573633376871264, "alt_km": 856.5819770165326, "timestamp": "2025-12-05T22:40:48.837115+00:00", "meta": {"OBJECT_NAME": "FENGYUN 1C DEB", "OBJECT_ID": "1999-025DDC", "EPOCH": "2025-11-30T03:59:31.835616", "MEAN_MOTION": 14.17406202, "ECCENTRICITY": 0.00518202, "INCLINATION": 98.8627, "RA_OF_ASC_NODE": 43.6004, "ARG_OF_PERICENTER": 82.3406, "MEAN_ANOMALY": 278.3649, "EPHEMERIS_TYPE": 0, "CLASSIFICATION_TYPE": "U", "NORAD_CAT_ID": 33619, "ELEMENT_SET_NO": 999, "REV_AT_EPOCH": 63446, "BSTAR": 0.0015187763, "MEAN_MOTION_DOT": 3.073e-05, "MEAN_MOTION_DDOT": 0}, "tle": {"line1": "1 33619U 99025DDC 25334.16634069  .00003073  00000+0  15188-2 0  9996", "line2": "2 33619  98.8627  43.6004 0051820  82.3406 278.3649 14.17406202634469"}}, "geometry": {"type": "Point", "coordinates": [59.573633376871264, -48.64958337300721]}}]}